{
  "links" : {
    "next" : "https://api.nasa.gov/neo/rest/v1/feed?start_date=2011-11-16&end_date=2011-11-16&detailed=true&api_key=t0TVs3DtDT2H8Oy2Zy8m2eVrNsAVKAexjcZXUckd",
    "prev" : "https://api.nasa.gov/neo/rest/v1/feed?start_date=2011-11-14&end_date=2011-11-14&detailed=true&api_key=t0TVs3DtDT2H8Oy2Zy8m2eVrNsAVKAexjcZXUckd",
    "self" : "https://api.nasa.gov/neo/rest/v1/feed?start_date=2011-11-15&end_date=2011-11-15&detailed=true&api_key=t0TVs3DtDT2H8Oy2Zy8m2eVrNsAVKAexjcZXUckd"
  },
  "element_count" : 8,
  "near_earth_objects" : {
    "2011-11-15" : [ {
      "links" : {
        "self" : "https://api.nasa.gov/neo/rest/v1/neo/3476778?api_key=t0TVs3DtDT2H8Oy2Zy8m2eVrNsAVKAexjcZXUckd"
      },
      "neo_reference_id" : "3476778",
      "name" : "(2009 WE)",
      "nasa_jpl_url" : "http://ssd.jpl.nasa.gov/sbdb.cgi?sstr=3476778",
      "absolute_magnitude_h" : 22.3,
      "estimated_diameter" : {
        "kilometers" : {
          "estimated_diameter_min" : 0.0921626549,
          "estimated_diameter_max" : 0.2060819612
        },
        "meters" : {
          "estimated_diameter_min" : 92.1626548503,
          "estimated_diameter_max" : 206.0819612321
        },
        "miles" : {
          "estimated_diameter_min" : 0.057267201,
          "estimated_diameter_max" : 0.1280533543
        },
        "feet" : {
          "estimated_diameter_min" : 302.370924539,
          "estimated_diameter_max" : 676.1219416887
        }
      },
      "is_potentially_hazardous_asteroid" : false,
      "close_approach_data" : [ {
        "close_approach_date" : "2011-11-15",
        "epoch_date_close_approach" : 1321344000000,
        "relative_velocity" : {
          "kilometers_per_second" : "22.6164604708",
          "kilometers_per_hour" : "81419.2576948696",
          "miles_per_hour" : "50590.760427126"
        },
        "miss_distance" : {
          "astronomical" : "0.3519184437",
          "lunar" : "136.896270752",
          "kilometers" : "52646248",
          "miles" : "32712862"
        },
        "orbiting_body" : "Earth"
      } ],
      "orbital_data" : {
        "orbit_id" : "11",
        "orbit_determination_date" : "2017-04-06 08:59:10",
        "orbit_uncertainty" : "8",
        "minimum_orbit_intersection" : ".166288",
        "jupiter_tisserand_invariant" : "4.237",
        "epoch_osculation" : "2455154.5",
        "eccentricity" : ".3791262045346044",
        "semi_major_axis" : "1.551307732295635",
        "inclination" : "29.0933273423695",
        "ascending_node_longitude" : "51.89814381663236",
        "orbital_period" : "705.7410229994316",
        "perihelion_distance" : ".9631663196852067",
        "perihelion_argument" : "72.05130822827248",
        "aphelion_distance" : "2.139449144906064",
        "perihelion_time" : "2455221.665278668550",
        "mean_anomaly" : "325.7388481997064",
        "mean_motion" : ".510102131331382",
        "equinox" : "J2000"
      }
    }, {
      "links" : {
        "self" : "https://api.nasa.gov/neo/rest/v1/neo/3588021?api_key=t0TVs3DtDT2H8Oy2Zy8m2eVrNsAVKAexjcZXUckd"
      },
      "neo_reference_id" : "3588021",
      "name" : "(2011 WT2)",
      "nasa_jpl_url" : "http://ssd.jpl.nasa.gov/sbdb.cgi?sstr=3588021",
      "absolute_magnitude_h" : 21.6,
      "estimated_diameter" : {
        "kilometers" : {
          "estimated_diameter_min" : 0.1272198785,
          "estimated_diameter_max" : 0.2844722965
        },
        "meters" : {
          "estimated_diameter_min" : 127.2198785394,
          "estimated_diameter_max" : 284.4722965033
        },
        "miles" : {
          "estimated_diameter_min" : 0.0790507431,
          "estimated_diameter_max" : 0.1767628354
        },
        "feet" : {
          "estimated_diameter_min" : 417.3880663071,
          "estimated_diameter_max" : 933.3080892598
        }
      },
      "is_potentially_hazardous_asteroid" : false,
      "close_approach_data" : [ {
        "close_approach_date" : "2011-11-15",
        "epoch_date_close_approach" : 1321344000000,
        "relative_velocity" : {
          "kilometers_per_second" : "13.9293761539",
          "kilometers_per_hour" : "50145.7541540623",
          "miles_per_hour" : "31158.6215186728"
        },
        "miss_distance" : {
          "astronomical" : "0.2994835462",
          "lunar" : "116.4990997314",
          "kilometers" : "44802100",
          "miles" : "27838734"
        },
        "orbiting_body" : "Earth"
      } ],
      "orbital_data" : {
        "orbit_id" : "3",
        "orbit_determination_date" : "2014-06-13 15:20:44",
        "orbit_uncertainty" : "9",
        "minimum_orbit_intersection" : ".169018",
        "jupiter_tisserand_invariant" : "2.240",
        "epoch_osculation" : "2455883.5",
        "eccentricity" : ".7712611515091438",
        "semi_major_axis" : "5.072008463829249",
        "inclination" : "14.96212156524666",
        "ascending_node_longitude" : "222.4064645805685",
        "orbital_period" : "4172.231342663825",
        "perihelion_distance" : "1.160165375552179",
        "perihelion_argument" : "174.3264070098693",
        "aphelion_distance" : "8.983851552106319",
        "perihelion_time" : "2455878.493125060113",
        "mean_anomaly" : ".432017026459636",
        "mean_motion" : ".08628476477772504",
        "equinox" : "J2000"
      }
    }, {
      "links" : {
        "self" : "https://api.nasa.gov/neo/rest/v1/neo/3590304?api_key=t0TVs3DtDT2H8Oy2Zy8m2eVrNsAVKAexjcZXUckd"
      },
      "neo_reference_id" : "3590304",
      "name" : "(2011 XL1)",
      "nasa_jpl_url" : "http://ssd.jpl.nasa.gov/sbdb.cgi?sstr=3590304",
      "absolute_magnitude_h" : 22.233,
      "estimated_diameter" : {
        "kilometers" : {
          "estimated_diameter_min" : 0.0950506249,
          "estimated_diameter_max" : 0.2125396587
        },
        "meters" : {
          "estimated_diameter_min" : 95.0506249381,
          "estimated_diameter_max" : 212.5396586654
        },
        "miles" : {
          "estimated_diameter_min" : 0.0590617019,
          "estimated_diameter_max" : 0.1320659802
        },
        "feet" : {
          "estimated_diameter_min" : 311.8458923219,
          "estimated_diameter_max" : 697.3086137358
        }
      },
      "is_potentially_hazardous_asteroid" : false,
      "close_approach_data" : [ {
        "close_approach_date" : "2011-11-15",
        "epoch_date_close_approach" : 1321344000000,
        "relative_velocity" : {
          "kilometers_per_second" : "5.268784414",
          "kilometers_per_hour" : "18967.6238903636",
          "miles_per_hour" : "11785.743855654"
        },
        "miss_distance" : {
          "astronomical" : "0.3562246825",
          "lunar" : "138.571395874",
          "kilometers" : "53290456",
          "miles" : "33113154"
        },
        "orbiting_body" : "Earth"
      } ],
      "orbital_data" : {
        "orbit_id" : "3",
        "orbit_determination_date" : "2017-04-07 19:29:42",
        "orbit_uncertainty" : "9",
        "minimum_orbit_intersection" : ".344794",
        "jupiter_tisserand_invariant" : "3.186",
        "epoch_osculation" : "2455897.5",
        "eccentricity" : ".5051899740469462",
        "semi_major_axis" : "2.623654950497815",
        "inclination" : "11.16835412145829",
        "ascending_node_longitude" : "89.43153192933768",
        "orbital_period" : "1552.238690600723",
        "perihelion_distance" : "1.298210774147682",
        "perihelion_argument" : "310.3591113778567",
        "aphelion_distance" : "3.949099126847949",
        "perihelion_time" : "2455861.208121146468",
        "mean_anomaly" : "8.416924836614706",
        "mean_motion" : ".2319230941606528",
        "equinox" : "J2000"
      }
    } ]
  }
}